{"type": "FeatureCollection", "features": [ {"type": "Feature", "properties": {"norad_id": 31074, "name": "FENGYUN 1C DEB", "group": "fengyun-1c-debris", "lat": 15.269708389477646, "lon": -109.91921689311258, "alt_km": 838.9673850867612, "timestamp": "2025-12-03T13:52:09.842166+00:00", "meta": {"OBJECT_NAME": "FENGYUN 1C DEB", "OBJECT_ID": "1999-025BFU", "EPOCH": "2025-12-02T05:31:54.784416", "MEAN_MOTION": 14.14072118, "ECCENTRICITY": 0.0089961, "INCLINATION": 98.9589, "RA_OF_ASC_NODE": 251.1985, "ARG_OF_PERICENTER": 295.203, "MEAN_ANOMALY": 63.9836, "EPHEMERIS_TYPE": 0, "CLASSIFICATION_TYPE": "U", "NORAD_CAT_ID": 31074, "ELEMENT_SET_NO": 999, "REV_AT_EPOCH": 95431, "BSTAR": 0.0031299, "MEAN_MOTION_DOT": 6.148e-05, "MEAN_MOTION_DDOT": 0}, "tle": {"line1": "1 31074U 99025BFU 25336.23049519  .00006148  00000+0  31299-2 0  9996", "line2": "2 31074  98.9589 251.1985 0089961 295.2030  63.9836 14.14072118954316"}}, "geometry": {"type": "Point", "coordinates": [-109.91921689311258, 15.269708389477646]}}, {"type": "Feature", "properties": {"norad_id": 31078, "name": "FENGYUN 1C DEB", "group": "fengyun-1c-debris", "lat": 79.8393336352473, "lon": -22.644632663931976, "alt_km": 810.1633926387613, "timestamp": "2025-12-03T13:52:09.842176+00:00", "meta": {"OBJECT_NAME": "FENGYUN 1C DEB", "OBJECT_ID": "1999-025BFY", "EPOCH": "2025-11-30T23:34:28.078752", "MEAN_MOTION": 14.22024043, "ECCENTRICITY": 0.01167401, "INCLINATION": 98.8697, "RA_OF_ASC_NODE": 35.355, "ARG_OF_PERICENTER": 182.5527, "MEAN_ANOMALY": 303.5221, "EPHEMERIS_TYPE": 0, "CLASSIFICATION_TYPE": "U", "NORAD_CAT_ID": 31078, "ELEMENT_SET_NO": 999, "REV_AT_EPOCH": 96725, "BSTAR": 0.00067957769, "MEAN_MOTION_DOT": 1.565e-05, "MEAN_MOTION_DDOT": 0}, "tle": {"line1": "1 31078U 99025BFY 25334.98226943  .00001565  00000+0  67958-3 0  9998", "line2": "2 31078  98.8697  35.3550 0116740 182.5527 303.5221 14.22024043967255"}}, "geometry": {"type": "Point", "coordinates": [-22.644632663931976, 79.8393336352473]}}, {"type": "Feature", "properties": {"norad_id": 31081, "name": "FENGYUN 1C DEB", "group": "fengyun-1c-debris", "lat": 20.45681107239384, "lon": -9.00274246521391, "alt_km": 890.761104688133, "timestamp": "2025-12-03T13:52:09.842187+00:00", "meta": {"OBJECT_NAME": "FENGYUN 1C DEB", "OBJECT_ID": "1999-025BGB", "EPOCH": "2025-12-03T07:00:59.103072", "MEAN_MOTION": 14.0629413, "ECCENTRICITY": 0.00471543, "INCLINATION": 98.7709, "RA_OF_ASC_NODE": 354.0221, "ARG_OF_PERICENTER": 258.0961, "MEAN_ANOMALY": 117.4742, "EPHEMERIS_TYPE": 0, "CLASSIFICATION_TYPE": "U", "NORAD_CAT_ID": 31081, "ELEMENT_SET_NO": 999, "REV_AT_EPOCH": 96328, "BSTAR": 2.9416958e-05, "MEAN_MOTION_DOT": 6e-08, "MEAN_MOTION_DDOT": 0}, "tle": {"line1": "1 31081U 99025BGB 25337.29235073  .00000006  00000+0  29417-4 0  9991", "line2": "2 31081  98.7709 354.0221 0047154 258.0961 117.4742 14.06294130963288"}}, "geometry": {"type": "Point", "coordinates": [-9.00274246521391, 20.45681107239384]}}, {"type": "Feature", "properties": {"norad_id": 31083, "name": "FENGYUN 1C DEB", "group": "fengyun-1c-debris", "lat": 40.76448266852852, "lon": 87.06580987372061, "alt_km": 676.3258114899336, "timestamp": "2025-12-03T13:52:09.842198+00:00", "meta": {"OBJECT_NAME": "FENGYUN 1C DEB", "OBJECT_ID": "1999-025BGD", "EPOCH": "2025-12-03T07:14:17.139264", "MEAN_MOTION": 14.61601339, "ECCENTRICITY": 0.00306232, "INCLINATION": 98.6478, "RA_OF_ASC_NODE": 94.3161, "ARG_OF_PERICENTER": 334.9852, "MEAN_ANOMALY": 53.11, "EPHEMERIS_TYPE": 0, "CLASSIFICATION_TYPE": "U", "NORAD_CAT_ID": 31083, "ELEMENT_SET_NO": 999, "REV_AT_EPOCH": 97572, "BSTAR": 0.0036789829, "MEAN_MOTION_DOT": 0.000184, "MEAN_MOTION_DDOT": 0}, "tle": {"line1": "1 31083U 99025BGD 25337.30158726  .00018400  00000+0  36790-2 0  9991", "line2": "2 31083  98.6478  94.3161 0030623 334.9852  53.1100 14.61601339975725"}}, "geometry": {"type": "Point", "coordinates": [87.06580987372061, 40.76448266852852]}}, {"type": "Feature", "properties": {"norad_id": 31085, "name": "FENGYUN 1C DEB", "group": "fengyun-1c-debris", "lat": 54.7323679615206, "lon": 10.992736794541917, "alt_km": 773.6557888117886, "timestamp": "2025-12-03T13:52:09.842208+00:00", "meta": {"OBJECT_NAME": "FENGYUN 1C DEB", "OBJECT_ID": "1999-025BGF", "EPOCH": "2025-12-03T00:34:38.608608", "MEAN_MOTION": 14.30300283, "ECCENTRICITY": 0.00876853, "INCLINATION": 98.9848, "RA_OF_ASC_NODE": 177.4933, "ARG_OF_PERICENTER": 46.1529, "MEAN_ANOMALY": 106.9202, "EPHEMERIS_TYPE": 0, "CLASSIFICATION_TYPE": "U", "NORAD_CAT_ID": 31085, "ELEMENT_SET_NO": 999, "REV_AT_EPOCH": 97577, "BSTAR": 0.00013383418, "MEAN_MOTION_DOT": 3.15e-06, "MEAN_MOTION_DDOT": 0}, "tle": {"line1": "1 31085U 99025BGF 25337.02405797  .00000315  00000+0  13383-3 0  9995", "line2": "2 31085  98.9848 177.4933 0087685  46.1529 106.9202 14.30300283975779"}}, "geometry": {"type": "Point", "coordinates": [10.992736794541917, 54.7323679615206]}}, {"type": "Feature", "properties": {"norad_id": 31087, "name": "FENGYUN 1C DEB", "group": "fengyun-1c-debris", "lat": -4.018480071522069, "lon": -1.2390413997253424, "alt_km": 597.0128770232386, "timestamp": "2025-12-03T13:52:09.842218+00:00", "meta": {"OBJECT_NAME": "FENGYUN 1C DEB", "OBJECT_ID": "1999-025BGH", "EPOCH": "2025-12-03T00:59:04.360416", "MEAN_MOTION": 14.60152839, "ECCENTRICITY": 0.01726018, "INCLINATION": 98.1031, "RA_OF_ASC_NODE": 357.6624, "ARG_OF_PERICENTER": 321.4771, "MEAN_ANOMALY": 93.0216, "EPHEMERIS_TYPE": 0, "CLASSIFICATION_TYPE": "U", "NORAD_CAT_ID": 31087, "ELEMENT_SET_NO": 999, "REV_AT_EPOCH": 98628, "BSTAR": 0.0011408544, "MEAN_MOTION_DOT": 6.724e-05, "MEAN_MOTION_DDOT": 0}, "tle": {"line1": "1 31087U 99025BGH 25337.04102269  .00006724  00000+0  11409-2 0  9993", "line2": "2 31087  98.1031 357.6624 0172601 321.4771  93.0216 14.60152839986281"}}, "geometry": {"type": "Point", "coordinates": [-1.2390413997253424, -4.018480071522069]}}, {"type": "Feature", "properties": {"norad_id": 31088, "name": "FENGYUN 1C DEB", "group": "fengyun-1c-debris", "lat": -38.30489432251446, "lon": -150.48398048116852, "alt_km": 816.531083391993, "timestamp": "2025-12-03T13:52:09.842229+00:00", "meta": {"OBJECT_NAME": "FENGYUN 1C DEB", "OBJECT_ID": "1999-025BGJ", "EPOCH": "2025-12-03T02:54:23.161824", "MEAN_MOTION": 14.28572278, "ECCENTRICITY": 0.00292595, "INCLINATION": 99.413, "RA_OF_ASC_NODE": 36.553, "ARG_OF_PERICENTER": 89.3587, "MEAN_ANOMALY": 301.3086, "EPHEMERIS_TYPE": 0, "CLASSIFICATION_TYPE": "U", "NORAD_CAT_ID": 31088, "ELEMENT_SET_NO": 999, "REV_AT_EPOCH": 96412, "BSTAR": 0.0021893193, "MEAN_MOTION_DOT": 5.471e-05, "MEAN_MOTION_DDOT": 0}, "tle": {"line1": "1 31088U 99025BGJ 25337.12110141  .00005471  00000+0  21893-2 0  9997", "line2": "2 31088  99.4130  36.5530 0029259  89.3587 301.3086 14.28572278964126"}}, "geometry": {"type": "Point", "coordinates": [-150.48398048116852, -38.30489432251446]}}, {"type": "Feature", "properties": {"norad_id": 31089, "name": "FENGYUN 1C DEB", "group": "fengyun-1c-debris", "lat": -21.325398038851628, "lon": -63.53035146569523, "alt_km": 815.6127934297174, "timestamp": "2025-12-03T13:52:09.842240+00:00", "meta": {"OBJECT_NAME": "FENGYUN 1C DEB", "OBJECT_ID": "1999-025BGK", "EPOCH": "2025-12-01T09:07:49.380096", "MEAN_MOTION": 13.88281458, "ECCENTRICITY": 0.02056627, "INCLINATION": 98.9488, "RA_OF_ASC_NODE": 117.8872, "ARG_OF_PERICENTER": 242.4516, "MEAN_ANOMALY": 143.828, "EPHEMERIS_TYPE": 0, "CLASSIFICATION_TYPE": "U", "NORAD_CAT_ID": 31089, "ELEMENT_SET_NO": 999, "REV_AT_EPOCH": 67902, "BSTAR": 0.00085311791, "MEAN_MOTION_DOT": 1.165e-05, "MEAN_MOTION_DDOT": 0}, "tle": {"line1": "1 31089U 99025BGK 25335.38043264  .00001165  00000+0  85312-3 0  9998", "line2": "2 31089  98.9488 117.8872 0205662 242.4516 143.8280 13.88281458679026"}}, "geometry": {"type": "Point", "coordinates": [-63.53035146569523, -21.325398038851628]}}, {"type": "Feature", "properties": {"norad_id": 31090, "name": "FENGYUN 1C DEB", "group": "fengyun-1c-debris", "lat": -25.03685999022066, "lon": -104.57037935156195, "alt_km": 446.0215253028555, "timestamp": "2025-12-03T13:52:09.842250+00:00", "meta": {"OBJECT_NAME": "FENGYUN 1C DEB", "OBJECT_ID": "1999-025BGL", "EPOCH": "2025-12-03T05:08:22.351776", "MEAN_MOTION": 15.31705689, "ECCENTRICITY": 0.00580185, "INCLINATION": 98.9856, "RA_OF_ASC_NODE": 79.2278, "ARG_OF_PERICENTER": 165.7342, "MEAN_ANOMALY": 194.5549, "EPHEMERIS_TYPE": 0, "CLASSIFICATION_TYPE": "U", "NORAD_CAT_ID": 31090, "ELEMENT_SET_NO": 999, "REV_AT_EPOCH": 692, "BSTAR": 0.0023310666, "MEAN_MOTION_DOT": 0.00075767, "MEAN_MOTION_DDOT": 0}, "tle": {"line1": "1 31090U 99025BGL 25337.21414759  .00075767  00000+0  23311-2 0  9994", "line2": "2 31090  98.9856  79.2278 0058018 165.7342 194.5549 15.31705689  6924"}}, "geometry": {"type": "Point", "coordinates": [-104.57037935156195, -25.03685999022066]}}, {"type": "Feature", "properties": {"norad_id": 31091, "name": "FENGYUN 1C DEB", "group": "fengyun-1c-debris", "lat": 43.106380254118875, "lon": 143.98302069520224, "alt_km": 1226.081234267771, "timestamp": "2025-12-03T13:52:09.842261+00:00", "meta": {"OBJECT_NAME": "FENGYUN 1C DEB", "OBJECT_ID": "1999-025BGM", "EPOCH": "2025-12-01T16:52:34.401216", "MEAN_MOTION": 13.54120325, "ECCENTRICITY": 0.02911009, "INCLINATION": 99.2236, "RA_OF_ASC_NODE": 313.4843, "ARG_OF_PERICENTER": 356.9866, "MEAN_ANOMALY": 2.9511, "EPHEMERIS_TYPE": 0, "CLASSIFICATION_TYPE": "U", "NORAD_CAT_ID": 31091, "ELEMENT_SET_NO": 999, "REV_AT_EPOCH": 61490, "BSTAR": 0.0010649547, "MEAN_MOTION_DOT": 9.06e-06, "MEAN_MOTION_DDOT": 0}, "tle": {"line1": "1 31091U 99025BGM 25335.70317594  .00000906  00000+0  10650-2 0  9991", "line2": "2 31091  99.2236 313.4843 0291100 356.9866   2.9511 13.54120325614903"}}, "geometry": {"type": "Point", "coordinates": [143.98302069520224, 43.106380254118875]}}]}